[{"OBJECT_NAME":"ONEWEB-0700","OBJECT_ID":"2024-188N","EPOCH":"2026-04-23T05:45:16.010496","MEAN_MOTION":13.10375209,"ECCENTRICITY":0.0001638,"INCLINATION":87.887,"RA_OF_ASC_NODE":47.0987,"ARG_OF_PERICENTER":57.6838,"MEAN_ANOMALY":302.4448,"EPHEMERIS_TYPE":0,"CLASSIFICATION_TYPE":"U","NORAD_CAT_ID":61606,"ELEMENT_SET_NO":999,"REV_AT_EPOCH":7610,"BSTAR":-0.00064861,"MEAN_MOTION_DOT":-2.14e-06,"MEAN_MOTION_DDOT":0.0},{"OBJECT_NAME":"ONEWEB-0701","OBJECT_ID":"2024-188P","EPOCH":"2026-04-23T06:09:11.767680","MEAN_MOTION":13.10374323,"ECCENTRICITY":0.0002027,"INCLINATION":87.8842,"RA_OF_ASC_NODE":47.1943,"ARG_OF_PERICENTER":54.1001,"MEAN_ANOMALY":306.0315,"EPHEMERIS_TYPE":0,"CLASSIFICATION_TYPE":"U","NORAD_CAT_ID":61607,"ELEMENT_SET_NO":999,"REV_AT_EPOCH":7611,"BSTAR":0.001845,"MEAN_MOTION_DOT":6.57e-06,"MEAN_MOTION_DDOT":0.0},{"OBJECT_NAME":"ONEWEB-0702","OBJECT_ID":"2024-188Q","EPOCH":"2026-04-23T05:43:21.323136","MEAN_MOTION":13.11428336,"ECCENTRICITY":0.0001652,"INCLINATION":87.8938,"RA_OF_ASC_NODE":31.9024,"ARG_OF_PERICENTER":43.4195,"MEAN_ANOMALY":316.7062,"EPHEMERIS_TYPE":0,"CLASSIFICATION_TYPE":"U","NORAD_CAT_ID":61608,"ELEMENT_SET_NO":999,"REV_AT_EPOCH":7728,"BSTAR":0.0042783,"MEAN_MOTION_DOT":1.529e-05,"MEAN_MOTION_DDOT":0.0},{"OBJECT_NAME":"ONEWEB-0704","OBJECT_ID":"2024-188R","EPOCH":"2026-04-23T05:52:24.225312","MEAN_MOTION":13.10396541,"ECCENTRICITY":0.0001694,"INCLINATION":87.887,"RA_OF_ASC_NODE":47.1788,"ARG_OF_PERICENTER":49.6975,"MEAN_ANOMALY":310.43,"EPHEMERIS_TYPE":0,"CLASSIFICATION_TYPE":"U","NORAD_CAT_ID":61609,"ELEMENT_SET_NO":999,"REV_AT_EPOCH":7609,"BSTAR":0.006006200000000001,"MEAN_MOTION_DOT":2.11e-05,"MEAN_MOTION_DDOT":0.0},{"OBJECT_NAME":"ONEWEB-0705","OBJECT_ID":"2024-188S","EPOCH":"2026-04-23T05:59:35.463264","MEAN_MOTION":13.10375286,"ECCENTRICITY":7.41e-05,"INCLINATION":87.8859,"RA_OF_ASC_NODE":47.1865,"ARG_OF_PERICENTER":74.3278,"MEAN_ANOMALY":285.7931,"EPHEMERIS_TYPE":0,"CLASSIFICATION_TYPE":"U","NORAD_CAT_ID":61610,"ELEMENT_SET_NO":999,"REV_AT_EPOCH":6826,"BSTAR":-0.00094636,"MEAN_MOTION_DOT":-3.18e-06,"MEAN_MOTION_DDOT":0.0},{"OBJECT_NAME":"ONEWEB-0706","OBJECT_ID":"2024-188T","EPOCH":"2026-04-23T05:38:05.400672","MEAN_MOTION":13.1037408,"ECCENTRICITY":0.0001529,"INCLINATION":87.8854,"RA_OF_ASC_NODE":47.1983,"ARG_OF_PERICENTER":62.6348,"MEAN_ANOMALY":297.4935,"EPHEMERIS_TYPE":0,"CLASSIFICATION_TYPE":"U","NORAD_CAT_ID":61611,"ELEMENT_SET_NO":999,"REV_AT_EPOCH":7618,"BSTAR":-0.0012338,"MEAN_MOTION_DOT":-4.18e-06,"MEAN_MOTION_DDOT":0.0},{"OBJECT_NAME":"ONEWEB-0707","OBJECT_ID":"2024-188U","EPOCH":"2026-04-23T05:47:39.698016","MEAN_MOTION":13.10375198,"ECCENTRICITY":0.0001597,"INCLINATION":87.8857,"RA_OF_ASC_NODE":47.188,"ARG_OF_PERICENTER":61.8006,"MEAN_ANOMALY":298.3282,"EPHEMERIS_TYPE":0,"CLASSIFICATION_TYPE":"U","NORAD_CAT_ID":61612,"ELEMENT_SET_NO":999,"REV_AT_EPOCH":7612,"BSTAR":-0.00032404,"MEAN_MOTION_DOT":-1e-06,"MEAN_MOTION_DDOT":0.0},{"OBJECT_NAME":"ONEWEB-0708","OBJECT_ID":"2024-188V","EPOCH":"2026-04-23T06:13:58.782432","MEAN_MOTION":13.1037369,"ECCENTRICITY":0.0001433,"INCLINATION":87.8848,"RA_OF_ASC_NODE":47.2075,"ARG_OF_PERICENTER":89.5232,"MEAN_ANOMALY":270.6059,"EPHEMERIS_TYPE":0,"CLASSIFICATION_TYPE":"U","NORAD_CAT_ID":61613,"ELEMENT_SET_NO":999,"REV_AT_EPOCH":7610,"BSTAR":0.0020411,"MEAN_MOTION_DOT":7.25e-06,"MEAN_MOTION_DDOT":0.0}]