ONEWEB-0700             
1 61606U 24188N   26113.23976864 -.00000214  00000+0 -64861-3 0  9996
2 61606  87.8870  47.0987 0001638  57.6838 302.4448 13.10375209 76109
ONEWEB-0701             
1 61607U 24188P   26113.25638620  .00000657  00000+0  18450-2 0  9995
2 61607  87.8842  47.1943 0002027  54.1001 306.0315 13.10374323 76119
ONEWEB-0702             
1 61608U 24188Q   26113.23844124  .00001529  00000+0  42783-2 0  9997
2 61608  87.8938  31.9024 0001652  43.4195 316.7062 13.11428336 77286
ONEWEB-0704             
1 61609U 24188R   26113.24472483  .00002110  00000+0  60062-2 0  9991
2 61609  87.8870  47.1788 0001694  49.6975 310.4300 13.10396541 76093
ONEWEB-0705             
1 61610U 24188S   26113.24971601 -.00000318  00000+0 -94636-3 0  9994
2 61610  87.8859  47.1865 0000741  74.3278 285.7931 13.10375286 68268
ONEWEB-0706             
1 61611U 24188T   26113.23478473 -.00000418  00000+0 -12338-2 0  9992
2 61611  87.8854  47.1983 0001529  62.6348 297.4935 13.10374080 76183
ONEWEB-0707             
1 61612U 24188U   26113.24143169 -.00000100  00000+0 -32404-3 0  9990
2 61612  87.8857  47.1880 0001597  61.8006 298.3282 13.10375198 76120
ONEWEB-0708             
1 61613U 24188V   26113.25970813  .00000725  00000+0  20411-2 0  9991
2 61613  87.8848  47.2075 0001433  89.5232 270.6059 13.10373690 76103
